#dP2021 12  7  0  0  0.00000000     288   u+U IGb14 FIT  GFZ                    
## 2187 172800.00000000   300.00000000 59555 0.0000000000000                    
+  125   C01C02C03C04C05C06C07C08C09C10C11C12C13C14C16C19C20                    
+        C21C22C23C24C25C26C27C28C29C30C32C33C34C35C36C37C38                    
+        C39C40C41C42C43C44C45C46C59C60E01E02E03E04E05E07E08                    
+        E09E11E12E13E14E15E18E19E21E24E25E26E27E30E31E33E36                    
+        G01G02G03G04G05G06G07G08G09G10G11G12G13G14G15G16G17                    
+        G18G19G20G21G22G23G24G25G26G27G28G29G30G31G32J01J02                    
+        J03J07R01R02R03R04R05R07R08R09R11R12R13R14R15R16R17                    
+        R18R19R20R21R22R24 00 00 00 00 00 00 00 00 00 00 00                    
++        10 10 10 10 10 10 10 10 10  7  9  7  9  7 10  6  6                    
++         7  7  5  5  7  6  6  6  6  8  8  8  5  5  5  6 10                    
++        10 10  7  6  8  8  6  6 10 10  6  6  5  6  6  6  5                    
++         6  6  6  5  7  6  6  6  6  9  6  5  7  6  6  5  7                    
++         6  5  5  6  8  6  8  5  5  5  9  5  5  6  6  6  5                    
++         6  6  6  5  8  5  7  6  7  6  6  8  5  5  5  8 10                    
++         8 10  8  5  6  8  9  7  8  6  8  7  6  8  6  8  5                    
++         6 10  8  8 10  8  0  0  0  0  0  0  0  0  0  0  0                    
%c M  cc GPS ccc cccc cccc cccc cccc ccccc ccccc ccccc ccccc                    
%c cc cc ccc ccc cccc cccc cccc cccc ccccc ccccc ccccc ccccc                    
%f  1.2500000  1.025000000  0.00000000000  0.000000000000000                    
%f  0.0000000  0.000000000  0.00000000000  0.000000000000000                    
%i    0    0    0    0      0      0      0      0         0                    
%i    0    0    0    0      0      0      0      0         0                    
/* PCV:IGS14_2178 OL/AL:FES2004  NONE     YN CLK:CoN ORB:CoN                    
/*     GeoForschungsZentrum Potsdam                                             
/*                                                                              
/*                                                                              
*  2021 12  7 22 40  0.00000000                                                 
PC01 -34316.085805  24454.954577    185.610673   -368.531431                    
PC02   4334.993138  41964.833357    938.574487    827.549641                    
PC03 -14859.570416  39447.412394   1121.269517    320.088122                    
PC04 -39617.227177  14351.715811     91.111960    326.203018                    
PC05  21900.170388  36031.140058   1004.709927    326.369116                    
PC06 -14947.162812  38325.482100  -9724.460355    601.411198                    
PC07  -2098.452920  33508.546758 -25444.793340    148.650154                    
PC08 -10718.223282  20445.049036  35273.894769    -41.744557                    
PC09 -11539.402667  37548.045600 -15624.752267   -329.661051                    
PC10   5663.538315  36322.352360 -20004.666690    136.638205                    
PC11   7506.699069 -24585.376171 -10838.734514   -347.057324                    
PC12  18022.013418 -20282.576566   6616.950448   -424.628707                    
PC13  -4708.793548  22464.646876  35463.427925   -185.020050                    
PC14  -3544.194788 -24653.718859 -12618.633117    505.252349                    
PC16 -18853.383471  37617.876276  -4132.959549     16.108397                    
PC19  10912.694855  25392.338445   3840.688750    925.574407                    
PC20  -2964.902499  20841.729998  18315.398732   -793.236260                    
PC21  15891.486073  -3504.552334 -22659.297646   -944.575734                    
PC22  18979.923807  15396.526362 -13459.854723   -968.348298                    
PC23 -24884.287015  -7866.325007   9867.839871   -963.061615                    
PC24  13306.822247 -14024.299510  20125.763398   -953.560594                    
PC25  -9620.234549 -15273.204276  21268.145025   -813.350610                    
PC26  26145.786887  -5583.200299   8059.196063    811.092592                    
PC27 -20049.310011  13089.016705 -14360.253709    641.612022                    
PC28 -14972.322415  -5836.066001 -22808.011145      6.264694                    
PC29   1865.297367  21390.140157  17822.128377    484.593016                    
PC30 -12878.805142  24699.576596   1850.143770    488.220853                    
PC32 -15922.006079   3549.327244  22649.837476   -957.674345                    
PC33 -11008.609066 -25349.185023  -3905.000007   -962.951645                    
PC34  12338.099515 -24868.155175  -2741.279056   -519.795579                    
PC35  14918.371708   5948.604584  22816.522425     35.740251                    
PC36   8797.474467  15569.595437 -21403.450521   -825.367562                    
PC37 -26619.381312   4310.799118  -7110.747288   -907.324813                    
PC38 -20682.148782  20808.820612  30234.304241    194.999987                    
PC39 -19562.019796  37439.655891   1051.984388     34.289214                    
PC40  -6237.678890  28688.049194 -30209.025662    224.551085                    
PC41 -19018.490762 -15639.606519  13165.843639   -915.705267                    
PC42   3665.664683 -20293.021978 -18769.331166   -935.321912                    
PC43  -1358.364529 -21779.026942 -17386.047360   -955.853852                    
PC44  19649.065242 -13526.089214  14451.583314    490.812654                    
PC45  25030.633539   7658.771293  -9714.711060    620.977794                    
PC46 -11855.390447  14364.148039 -20766.078375    -48.586283                    
PC59 -32246.295967  27150.737555    -58.067049      0.263336                    
PC60   7272.869586  41520.302403    734.897559     -0.343413                    
PE01  26898.028385   9802.402919   7555.055654   -533.213960                    
PE02 -26878.897904  -9683.320416  -7691.809314    265.362247                    
PE03 -16800.003688  -5378.279354  23761.254033   -503.981722                    
PE04  14197.766121 -16497.628273 -20061.565382   -915.938075                    
PE05  -9583.669806 -24491.933498  13574.308525   -228.179806                    
PE07  -3117.454487  29104.604727   4380.903350   -615.182501                    
PE08 -13850.209660  16949.621640  19915.659817   5892.585964                    
PE09   2840.568958 -29168.284829  -4206.581328   5437.687157                    
PE11  10558.901101 -20315.397067 -18759.311645   4937.358349                    
PE12  25150.637034 -15555.709623  -1156.825599   4872.130467                    
PE13 -11118.380195  20348.745752  18405.767601    424.461234                    
PE14 -20062.748574  -2528.202710 -24361.647778  -1666.758081                    
PE15 -25138.088790  15589.582681   1081.254814    776.587706                    
PE18  16161.618633 -11004.142849  16013.917518  -1833.046666                    
PE19  16279.070026   8210.285890 -23322.875734    446.533299                    
PE21  19770.520358  19506.237468 -10251.654783   -703.973536                    
PE24    498.471282 -18137.525803  23372.353535  -1267.547560                    
PE25 -19571.595931 -19571.645536  10483.065179   -556.115490                    
PE26  10449.403420  12642.949575  24649.193672   -543.599817                    
PE27    867.558650  18550.453069 -23047.742091   -181.794491                    
PE30 -19333.959841   5741.954945 -21662.832502    -91.477441                    
PE31  18421.802306  -6685.502288  22197.783261   -489.058764                    
PE33  24293.284308  -1641.838735  16841.305932   -461.690787                    
PE36  -9358.207883 -13124.116097 -24817.701971   -300.694353                    
PG01   1265.341440 -15730.589452 -21577.500081    490.141644                    
PG02 -20084.006061  15830.049344   8021.268698   -644.890729                    
PG03  -8166.296613 -20088.304720 -15510.222820    -34.610460                    
PG04   -193.345848 -25579.677706   7000.279067   -199.766550                    
PG05  -6873.672565  13692.787351  21520.977749    -63.637968                    
PG06 -25206.007240   4863.603223  -6870.208717    136.885114                    
PG07 -15553.935174  -9286.392045  19952.245835    288.072452                    
PG08   6428.307576 -25196.838289   4436.822099    -47.205244                    
PG09  -9005.397148 -19016.880814  16115.417634   -360.823664                    
PG10  22869.158750  10209.524362  -9149.669797   -263.436546                    
PG11 -22827.436390  12032.940295   6253.774963     14.728882                    
PG12   4945.958468  20219.894983 -16830.226584   -137.451642                    
PG13 -13084.155076  20776.183444   9775.536240    226.037704                    
PG14 -22444.000210 -10938.672655  -9145.218986    -51.455129                    
PG15  -3250.750070  25909.405244   3366.977457   -100.843990                    
PG16  11023.847392 -10010.342918  21748.204592   -436.733555                    
PG17 -13628.331427  -5637.168108 -21648.908838    544.319509                    
PG18  15923.384651   8420.824178  19547.704224    283.345965                    
PG19 -15757.283333   3622.371783 -21299.947547     89.234311                    
PG20 -16290.388736   7127.200598  19637.222101    517.751201                    
PG21  10378.364240 -17512.988067 -16052.449384    153.137668                    
PG22   -716.059011 -17636.670602 -19733.283939   -446.765541                    
PG23  20444.054267  16944.084915   1716.020718     24.367998                    
PG24  -4909.162285  17976.339738 -19060.265495    273.341503                    
PG25  15592.320918  20025.797823  -8571.552371    252.312409                    
PG26  20769.635637    -30.831617  16653.144976    162.806630                    
PG27  12151.298314 -19029.392355  13488.787049   -228.322287                    
PG28 -20629.545477  -5554.619447 -15103.173657    447.689375                    
PG29   4257.952556  22309.611070  13682.667455   -450.928723                    
PG30 -22985.423607  -2086.339502  13416.207691   -497.534177                    
PG31  25773.015053  -5901.036740  -4586.020555   -153.929596                    
PG32  15242.497948    907.426928 -21609.696787    -31.997492                    
PJ01 -27122.859537  22667.903505  27931.290985    106.032007                    
PJ02 -26446.299211  15716.166748 -24275.513151     -0.297249                    
PJ03 -26188.278658  32729.208913   -575.852672     -8.522886                    
PJ07 -25402.489811  33651.500289    -22.086718     -0.019642                    
PR01  11561.728726    -81.820638 -22742.290431     89.168058                    
PR02   2273.442307 -19024.276824 -16767.380625    502.558267                    
PR03  -7460.101683 -24343.710415   -844.332377     47.755914                    
PR04 -12652.768518 -16003.299437  15323.589070    117.775714                    
PR05 -10923.923434   1194.086148  23022.209274     83.803527                    
PR07   7727.947236  24338.227366    245.644081    -39.398145                    
PR08  12749.983060  15964.857860 -15243.621205    -62.432072                    
PR09  -9662.063464   9066.402377 -21793.411423     27.556522                    
PR11  22797.681770   8267.079574  -7887.012708     49.268933                    
PR12  23272.252224   -282.149380  10493.026071    284.660668                    
PR13  10595.251523  -8444.261319  21597.483703    -64.542567                    
PR14  -9469.305479 -12018.332978  20423.499279     71.825093                    
PR15 -22985.747729  -8369.161584   7242.389302     99.745846                    
PR16 -22584.363775   1651.883648 -11626.072156    -26.383755                    
PR17   3143.178120 -16437.740247 -19252.702879    481.575297                    
PR18 -10246.029861  -4106.694803 -22979.109157     99.726642                    
PR19 -18261.616072   9009.603039 -15350.709315   -169.839232                    
PR20 -16262.213404  19255.309633   4068.265042    -60.774474                    
PR21  -2068.217813  15598.589825  20072.153458   -260.462722                    
PR22  10759.682764   3421.473099  22855.071918   -149.997575                    
PR24  15474.890277 -19740.015043  -4671.218478     70.217223                    
EOF                                     
